NORAD_CAT_ID,OBJECT_NAME,OBJECT_TYPE,EPOCH,MEAN_MOTION,ECCENTRICITY,INCLINATION,RA_OF_ASC_NODE,ARG_OF_PERICENTER,MEAN_ANOMALY,BSTAR,MEAN_MOTION_DOT,MEAN_MOTION_DDOT,TLE_LINE0,TLE_LINE1,TLE_LINE2,SEMIMAJOR_AXIS,PERIOD,APOGEE,PERIGEE,DECAYED
52706.0,STARLINK-3970,PAYLOAD,2023-09-08 07:08:39,15.08841437,0.0001445,53.2152,274.498,95.1492,264.9665,5.4138e-05,5.74e-06,0.0,0 STARLINK-3970,1 52706U 22053BC  23251.29767737  .00000574  00000-0  54138-4 0  9994,2 52706  53.2152 274.4980 0001445  95.1492 264.9665 15.08841437 72994,6917.876,95.437,540.741,538.741,0.0
52706.0,STARLINK-3970,PAYLOAD,2023-09-08 18:16:21,15.0883178,0.0001881,53.2164,272.4153,85.8897,274.231,2.6539e-05,1.34e-06,0.0,0 STARLINK-3970,1 52706U 22053BC  23251.76136517  .00000134  00000-0  26539-4 0  9998,2 52706  53.2164 272.4153 0001881  85.8897 274.2310 15.08831780 73066,6917.906,95.438,541.072,538.469,0.0
52706.0,STARLINK-3970,PAYLOAD,2023-09-09 08:34:49,15.0883846,0.0001373,53.2155,269.7409,91.9744,268.1405,7.501e-05,9.06e-06,0.0,0 STARLINK-3970,1 52706U 22053BC  23252.35751985  .00000906  00000-0  75010-4 0  9991,2 52706  53.2155 269.7409 0001373  91.9744 268.1405 15.08838460 73153,6917.885,95.438,540.7,538.8,0.0
52706.0,STARLINK-3970,PAYLOAD,2023-09-09 11:45:35,15.08840667,0.0001417,53.2159,269.1458,91.9565,268.1589,9.2889e-05,1.191e-05,0.0,0 STARLINK-3970,1 52706U 22053BC  23252.48999859  .00001191  00000-0  92889-4 0  9999,2 52706  53.2159 269.1458 0001417  91.9565 268.1589 15.08840667 73600,6917.878,95.438,540.724,538.763,0.0
52706.0,STARLINK-3970,PAYLOAD,2023-09-10 10:00:59,15.08844216,0.0001704,53.2161,264.983,111.5886,248.5288,5.71e-05,6.21e-06,0.0,0 STARLINK-3970,1 52706U 22053BC  23253.41735849  .00000621  00000-0  57100-4 0  9994,2 52706  53.2161 264.9830 0001704 111.5886 248.5288 15.08844216 73314,6917.868,95.437,540.911,538.554,0.0
52706.0,STARLINK-3970,PAYLOAD,2023-09-10 17:57:55,15.0883472,0.0001531,53.2161,263.4962,101.6038,258.5126,0.00013972,1.936e-05,0.0,0 STARLINK-3970,1 52706U 22053BC  23253.74856411  .00001936  00000-0  13972-3 0  9997,2 52706  53.2161 263.4962 0001531 101.6038 258.5126 15.08834720 73367,6917.897,95.438,540.821,538.702,0.0
52706.0,STARLINK-3970,PAYLOAD,2023-09-11 08:16:23,15.08842617,0.0001501,53.2163,260.8201,89.5017,270.6147,7.5118e-05,9.08e-06,0.0,0 STARLINK-3970,1 52706U 22053BC  23254.34472148  .00000908  00000-0  75118-4 0  9994,2 52706  53.2163 260.8201 0001501  89.5017 270.6147 15.08842617 73883,6917.872,95.437,540.776,538.699,0.0
52706.0,STARLINK-3970,PAYLOAD,2023-09-12 00:10:15,15.08840936,0.0001499,53.2159,257.8458,89.1729,270.9435,8.2001e-05,1.017e-05,0.0,0 STARLINK-3970,1 52706U 22053BC  23255.00712258  .00001017  00000-0  82001-4 0  9998,2 52706  53.2159 257.8458 0001499  89.1729 270.9435 15.08840936 73559,6917.878,95.437,540.78,538.706,0.0
52706.0,STARLINK-3970,PAYLOAD,2023-09-12 09:42:33,15.08845016,0.000141,53.2153,256.0609,92.1745,267.9408,9.2966e-05,1.192e-05,0.0,0 STARLINK-3970,1 52706U 22053BC  23255.40455927  .00001192  00000-0  92966-4 0  9994,2 52706  53.2153 256.0609 0001410  92.1745 267.9408 15.08845016 74042,6917.865,95.437,540.705,538.755,0.0
52706.0,STARLINK-3970,PAYLOAD,2023-09-12 17:39:29,15.08845421,0.0001401,53.2154,254.5742,92.0628,268.0525,0.00010148,1.328e-05,0.0,0 STARLINK-3970,1 52706U 22053BC  23255.73575859  .00001328  00000-0  10148-3 0  9999,2 52706  53.2154 254.5742 0001401  92.0628 268.0525 15.08845421 74090,6917.864,95.437,540.698,538.76,0.0
52706.0,STARLINK-3970,PAYLOAD,2023-09-13 06:22:34,15.08849017,0.0001446,53.2155,252.1951,92.9728,267.1429,0.00013022,1.786e-05,0.0,0 STARLINK-3970,1 52706U 22053BC  23256.26567564  .00001786  00000-0  13022-3 0  9994,2 52706  53.2155 252.1951 0001446  92.9728 267.1429 15.08849017 73745,6917.853,95.437,540.718,538.718,0.0
52706.0,STARLINK-3970,PAYLOAD,2023-09-14 03:02:36,15.08837959,0.0001636,53.2159,248.3284,93.8646,266.2533,-0.00010935,-2.028e-05,0.0,0 STARLINK-3970,1 52706U 22053BC  23257.12680884 -.00002028  00000-0 -10935-3 0  9993,2 52706  53.2159 248.3284 0001636  93.8646 266.2533 15.08837959 73877,6917.887,95.438,540.883,538.62,0.0
52706.0,STARLINK-3970,PAYLOAD,2023-09-14 09:24:09,15.08831512,0.0001484,53.2157,247.1395,95.5006,264.6156,-4.3527e-05,-9.8e-06,0.0,0 STARLINK-3970,1 52706U 22053BC  23257.39177219 -.00000980  00000-0 -43527-4 0  9994,2 52706  53.2157 247.1395 0001484  95.5006 264.6156 15.08831512 74340,6917.906,95.438,540.798,538.745,0.0
52706.0,STARLINK-3970,PAYLOAD,2023-09-15 04:28:45,15.08845456,0.0001579,53.2163,243.571,104.7277,255.389,6.3719e-05,7.26e-06,0.0,0 STARLINK-3970,1 52706U 22053BC  23258.18664103  .00000726  00000-0  63719-4 0  9996,2 52706  53.2163 243.5710 0001579 104.7277 255.3890 15.08845456 74036,6917.864,95.437,540.821,538.636,0.0
52706.0,STARLINK-3970,PAYLOAD,2023-09-15 09:14:55,15.08843779,0.0001497,53.216,242.6799,95.5234,264.5929,0.00020306,2.946e-05,0.0,0 STARLINK-3970,1 52706U 22053BC  23258.38535958  .00002946  00000-0  20306-3 0  9993,2 52706  53.2160 242.6799 0001497  95.5234 264.5929 15.08843779 74490,6917.869,95.437,540.769,538.698,0.0
52706.0,STARLINK-3970,PAYLOAD,2023-09-15 23:33:24,15.0883128,0.0001549,53.2159,240.0032,94.3716,265.7453,0.00011542,1.549e-05,0.0,0 STARLINK-3970,1 52706U 22053BC  23258.98153074  .00001549  00000-0  11542-3 0  9994,2 52706  53.2159 240.0032 0001549  94.3716 265.7453 15.08831280 74152,6917.907,95.438,540.844,538.7,0.0
52706.0,STARLINK-3970,PAYLOAD,2023-09-16 07:30:19,15.08838475,0.0001471,53.2161,238.5178,92.7583,267.3577,0.00018922,2.725e-05,0.0,0 STARLINK-3970,1 52706U 22053BC  23259.31272794  .00002725  00000-0  18922-3 0  9999,2 52706  53.2161 238.5178 0001471  92.7583 267.3577 15.08838475 74637,6917.885,95.438,540.768,538.732,0.0
52706.0,STARLINK-3970,PAYLOAD,2023-09-17 07:21:07,15.08842361,0.0001474,53.2162,234.0572,90.5493,269.5668,6.5641e-06,-1.84e-06,0.0,0 STARLINK-3970,1 52706U 22053BC  23260.30633203 -.00000184  00000-0  65641-5 0  9996,2 52706  53.2162 234.0572 0001474  90.5493 269.5668 15.08842361 74786,6917.873,95.437,540.758,538.718,0.0
52706.0,STARLINK-3970,PAYLOAD,2023-09-18 08:47:16,15.08854053,0.0001472,53.2159,229.2985,89.8216,270.2945,0.00018344,2.634e-05,0.0,0 STARLINK-3970,1 52706U 22053BC  23261.36616033  .00002634  00000-0  18344-3 0  9992,2 52706  53.2159 229.2985 0001472  89.8216 270.2945 15.08854053 74517,6917.837,95.437,540.721,538.684,0.0
52706.0,STARLINK-3970,PAYLOAD,2023-09-19 02:16:31,15.08839012,0.0001592,53.216,226.0246,84.7641,275.3532,0.00013036,1.787e-05,0.0,0 STARLINK-3970,1 52706U 22053BC  23262.09481068  .00001787  00000-0  13036-3 0  9992,2 52706  53.2160 226.0246 0001592  84.7641 275.3532 15.08839012 74621,6917.883,95.438,540.85,538.647,0.0
52706.0,STARLINK-3970,PAYLOAD,2023-09-19 07:02:40,15.08852445,0.0001453,53.2151,225.1315,92.2588,267.8571,0.00029275,4.376e-05,0.0,0 STARLINK-3970,1 52706U 22053BC  23262.29352382  .00004376  00000-0  29275-3 0  9999,2 52706  53.2151 225.1315 0001453  92.2588 267.8571 15.08852445 74655,6917.842,95.437,540.713,538.702,0.0
52706.0,STARLINK-3970,PAYLOAD,2023-09-20 02:07:18,15.08840769,0.0001579,53.2154,221.5654,82.0484,278.0687,0.00013111,1.799e-05,0.0,0 STARLINK-3970,1 52706U 22053BC  23263.08840849  .00001799  00000-0  13111-3 0  9995,2 52706  53.2154 221.5654 0001579  82.0484 278.0687 15.08840769 74776,6917.878,95.438,540.835,538.651,0.0
52706.0,STARLINK-3970,PAYLOAD,2023-09-20 06:53:27,15.08843091,0.0001562,53.2159,220.6735,84.9776,275.1394,0.00021625,3.156e-05,0.0,0 STARLINK-3970,1 52706U 22053BC  23263.28712859  .00003156  00000-0  21625-3 0  9994,2 52706  53.2159 220.6735 0001562  84.9776 275.1394 15.08843091 75234,6917.871,95.437,540.817,538.655,0.0
52706.0,STARLINK-3970,PAYLOAD,2023-09-20 14:50:24,15.0883091,0.0001565,53.2162,219.1857,97.5422,262.5748,3.0776e-05,2.02e-06,0.0,0 STARLINK-3970,1 52706U 22053BC  23263.61833431  .00000202  00000-0  30776-4 0  9998,2 52706  53.2162 219.1857 0001565  97.5422 262.5748 15.08830910 74853,6917.908,95.438,540.856,538.691,0.0
52706.0,STARLINK-3970,PAYLOAD,2023-09-20 21:11:56,15.08830643,0.0001605,53.2159,217.9986,92.7878,267.3298,6.0662e-05,6.77e-06,0.0,0 STARLINK-3970,1 52706U 22053BC  23263.88329784  .00000677  00000-0  60662-4 0  9991,2 52706  53.2159 217.9986 0001605  92.7878 267.3298 15.08830643 75324,6917.909,95.438,540.884,538.664,0.0
52706.0,STARLINK-3970,PAYLOAD,2023-09-21 06:44:15,15.08833381,0.0001333,53.2153,216.2133,100.1932,259.9211,0.000192,2.769e-05,0.0,0 STARLINK-3970,1 52706U 22053BC  23264.28073882  .00002769  00000-0  19200-3 0  9996,2 52706  53.2153 216.2133 0001333 100.1932 259.9211 15.08833381 75387,6917.901,95.438,540.688,538.843,0.0
52706.0,STARLINK-3970,PAYLOAD,2023-09-22 03:24:16,15.08851546,0.0001174,53.2152,212.3495,100.1347,259.9778,0.00074745,0.00011631,0.0,0 STARLINK-3970,1 52706U 22053BC  23265.14185931  .00011631  00000-0  74745-3 0  9994,2 52706  53.2152 212.3495 0001174 100.1347 259.9778 15.08851546 75085,6917.845,95.437,540.522,538.898,0.0
52706.0,STARLINK-3970,PAYLOAD,2023-09-22 06:35:02,15.0885912,0.0001176,53.2152,211.7546,99.6818,260.4307,0.00089521,0.00013995,0.0,0 STARLINK-3970,1 52706U 22053BC  23265.27433725  .00013995  00000-0  89521-3 0  9998,2 52706  53.2152 211.7546 0001176  99.6818 260.4307 15.08859120 75533,6917.822,95.436,540.5,538.873,0.0
52706.0,STARLINK-3970,PAYLOAD,2023-09-23 01:39:40,15.08856456,0.0001131,53.2154,208.1842,93.4781,266.634,0.00065223,0.00010112,0.0,0 STARLINK-3970,1 52706U 22053BC  23266.06921582  .00010112  00000-0  65223-3 0  9990,2 52706  53.2154 208.1842 0001131  93.4781 266.6340 15.08856456 75226,6917.83,95.437,540.477,538.913,0.0
52706.0,STARLINK-3970,PAYLOAD,2023-09-23 06:25:49,15.08858724,0.0001188,53.2151,207.2914,104.0484,256.064,0.00063931,9.907e-05,0.0,0 STARLINK-3970,1 52706U 22053BC  23266.26793321  .00009907  00000-0  63931-3 0  9994,2 52706  53.2151 207.2914 0001188 104.0484 256.0640 15.08858724 75680,6917.823,95.436,540.51,538.866,0.0
